1 25415U 98046C   19273.15378656  .00000111  00000-0  91420-4 0  9990
2 25415  44.9959 293.8440 0005218 269.9675 139.8519 14.32876757104774
1 25415U 98046C   19273.51791324 +.00000109 +00000-0 +90509-4 0  9995
2 25415 044.9959 292.1318 0005216 271.5941 218.3350 14.32876943104642
1 25415U 98046C   19274.49364435  .00000109  00000-0  90377-4 0  9995
2 25415  44.9958 287.5435 0005218 275.8535 212.1082 14.32877467104968
1 25415U 98046C   19275.54275963  .00000109  00000-0  90544-4 0  9995
2 25415  44.9957 282.6100 0005213 280.3870 224.5166 14.32877971105118
1 25415U 98046C   19276.85222987 +.00000110 +00000-0 +90879-4 0  9991
2 25415 044.9956 276.4521 0005205 286.0845 140.0653 14.32878513105128
1 25415U 98046C   19277.20795943  .00000107  00000-0  89775-4 0  9997
2 25415  44.9955 274.7793 0005194 287.6776 175.2270 14.32878629105354
1 25415U 98046C   19277.90033434 +.00000114 +00000-0 +92294-4 0  9992
2 25415 044.9955 271.5233 0005180 290.6155 147.2612 14.32878946105270
1 25415U 98046C   19278.46945479  .00000119  00000-0  94336-4 0  9999
2 25415  44.9954 268.8470 0005157 293.0743 203.3699 14.32879245105536
1 25415U 98046C   19279.77956368  .00000118  00000-0  93726-4 0  9994
2 25415  44.9955 262.6861 0005119 298.7744 122.2211 14.32879901105723
1 25415U 98046C   19280.90061003 +.00000074 +00000-0 +77706-4 0  9995
2 25415 044.9955 257.4144 0005074 303.9460 145.4049 14.32880165105701
1 25415U 98046C   19281.10120005  .00000054  00000-0  70628-4 0  9990
2 25415  44.9955 256.4711 0005059 304.8272 100.2403 14.32880152105916
1 25415U 98046C   19281.73113762 +.00000033 +00000-0 +62955-4 0  9992
2 25415 044.9956 253.5088 0005033 307.4652 110.1917 14.32880325105827
1 25415U 98046C   19282.15089822  .00000011  00000-0  55056-4 0  9998
2 25415  44.9956 251.5349 0005007 309.4691 115.5594 14.32880354106060
1 25415U 98046C   19282.91371163 +.00000000 +00000-0 +51050-4 0  9992
2 25415 044.9956 247.9479 0004976 312.9156 090.7878 14.32880567105998
1 25415U 98046C   19283.34808911  .00000004  00000-0  52629-4 0  9993
2 25415  44.9956 245.9053 0004948 315.0975 171.4509 14.32880767106234
1 25415U 98046C   19283.75501414 +.00000010 +00000-0 +54693-4 0  9996
2 25415 044.9957 243.9918 0004931 316.8033 110.8437 14.32880940106116
1 25415U 98046C   19284.73082045  .00000052  00000-0  69909-4 0  9991
2 25415  44.9956 239.4031 0004871 321.1808 104.9032 14.32881550106431
1 25415U 98046C   19284.93533194 +.00000061 +00000-0 +73098-4 0  9993
2 25415 044.9956 238.4414 0004855 322.2541 079.7959 14.32881670106286
